{
"type": "FeatureCollection",
"name": "cities",
"crs": { "type": "name", "properties": { "name": "urn:ogc:def:crs:OGC:1.3:CRS84" } },
"features": [
{ "type": "Feature", "properties": { "Code": 110100.0, "Province": "北京市", "City": "北京市", "X": 116.407526, "Y": 39.90403, "Name": "崔泽铭", "Year": "2016" }, "geometry": { "type": "Point", "coordinates": [ 116.407526000324765, 39.904030000084504 ] } },
{ "type": "Feature", "properties": { "Code": 130100.0, "Province": "河北省", "City": "石家庄市", "X": 114.514859, "Y": 38.042306, "Name": "崔泽铭", "Year": "2023" }, "geometry": { "type": "Point", "coordinates": [ 114.514858999643138, 38.042306000021938 ] } },
{ "type": "Feature", "properties": { "Code": 130600.0, "Province": "河北省", "City": "保定市", "X": 115.464806, "Y": 38.873891, "Name": "崔泽铭", "Year": "2023" }, "geometry": { "type": "Point", "coordinates": [ 115.464805999797136, 38.873890999869786 ] } },
{ "type": "Feature", "properties": { "Code": 310100.0, "Province": "上海市", "City": "上海市", "X": 121.473701, "Y": 31.230416, "Name": "崔泽铭", "Year": "2019" }, "geometry": { "type": "Point", "coordinates": [ 121.473700999601533, 31.230416000398179 ] } },
{ "type": "Feature", "properties": { "Code": 320100.0, "Province": "江苏省", "City": "南京市", "X": 118.796877, "Y": 32.060255, "Name": "崔泽铭", "Year": "2019" }, "geometry": { "type": "Point", "coordinates": [ 118.79687699997362, 32.06025499976846 ] } },
{ "type": "Feature", "properties": { "Code": 320200.0, "Province": "江苏省", "City": "无锡市", "X": 120.31191, "Y": 31.491169, "Name": "崔泽铭", "Year": "2024" }, "geometry": { "type": "Point", "coordinates": [ 120.311910000446233, 31.491169000249215 ] } },
{ "type": "Feature", "properties": { "Code": 320400.0, "Province": "江苏省", "City": "常州市", "X": 119.973987, "Y": 31.810689, "Name": "崔泽铭", "Year": "2024" }, "geometry": { "type": "Point", "coordinates": [ 119.97398699960047, 31.810688999597687 ] } },
{ "type": "Feature", "properties": { "Code": 320500.0, "Province": "江苏省", "City": "苏州市", "X": 120.585315, "Y": 31.298886, "Name": "崔泽铭", "Year": "2024" }, "geometry": { "type": "Point", "coordinates": [ 120.585315000087235, 31.298886000388677 ] } },
{ "type": "Feature", "properties": { "Code": 321100.0, "Province": "江苏省", "City": "镇江市", "X": 119.425836, "Y": 32.187849, "Name": "崔泽铭", "Year": "2024" }, "geometry": { "type": "Point", "coordinates": [ 119.425835999631772, 32.187849000431072 ] } },
{ "type": "Feature", "properties": { "Code": 330100.0, "Province": "浙江省", "City": "杭州市", "X": 120.15507, "Y": 30.274084, "Name": "崔泽铭", "Year": "2019" }, "geometry": { "type": "Point", "coordinates": [ 120.155070000080514, 30.274083999876723 ] } },
{ "type": "Feature", "properties": { "Code": 330200.0, "Province": "浙江省", "City": "宁波市", "X": 121.550357, "Y": 29.874556, "Name": "崔泽铭", "Year": "2024" }, "geometry": { "type": "Point", "coordinates": [ 121.550357000275426, 29.874555999959455 ] } },
{ "type": "Feature", "properties": { "Code": 340100.0, "Province": "安徽省", "City": "合肥市", "X": 117.227239, "Y": 31.820586, "Name": "崔泽铭", "Year": "2024" }, "geometry": { "type": "Point", "coordinates": [ 117.227239000379654, 31.820586000043932 ] } },
{ "type": "Feature", "properties": { "Code": 340500.0, "Province": "安徽省", "City": "马鞍山市", "X": 118.506759, "Y": 31.670452, "Name": "崔泽铭", "Year": "2024" }, "geometry": { "type": "Point", "coordinates": [ 118.506759000327634, 31.670451999560157 ] } },
{ "type": "Feature", "properties": { "Code": 341500.0, "Province": "安徽省", "City": "六安市", "X": 116.521854, "Y": 31.733699, "Name": "崔泽铭", "Year": "2024" }, "geometry": { "type": "Point", "coordinates": [ 116.521853999862287, 31.733698999709134 ] } },
{ "type": "Feature", "properties": { "Code": 350100.0, "Province": "福建省", "City": "福州市", "X": 119.296494, "Y": 26.074507, "Name": "崔泽铭", "Year": "2022" }, "geometry": { "type": "Point", "coordinates": [ 119.296494000197981, 26.074506999898176 ] } },
{ "type": "Feature", "properties": { "Code": 350200.0, "Province": "福建省", "City": "厦门市", "X": 118.089425, "Y": 24.479833, "Name": "崔泽铭", "Year": "2023" }, "geometry": { "type": "Point", "coordinates": [ 118.089425000363576, 24.479832999593327 ] } },
{ "type": "Feature", "properties": { "Code": 360400.0, "Province": "江西省", "City": "九江市", "X": 116.00193, "Y": 29.705077, "Name": "崔泽铭", "Year": "2024" }, "geometry": { "type": "Point", "coordinates": [ 116.00193000026934, 29.705077000403321 ] } },
{ "type": "Feature", "properties": { "Code": 370100.0, "Province": "山东省", "City": "济南市", "X": 117.119999, "Y": 36.651216, "Name": "崔泽铭", "Year": "2025" }, "geometry": { "type": "Point", "coordinates": [ 117.119999000353687, 36.651216000018451 ] } },
{ "type": "Feature", "properties": { "Code": 420100.0, "Province": "湖北省", "City": "武汉市", "X": 114.305392, "Y": 30.593098, "Name": "崔泽铭", "Year": "2021" }, "geometry": { "type": "Point", "coordinates": [ 114.305391999641188, 30.593098000172631 ] } },
{ "type": "Feature", "properties": { "Code": 420200.0, "Province": "湖北省", "City": "黄石市", "X": 115.03852, "Y": 30.199652, "Name": "崔泽铭", "Year": "2024" }, "geometry": { "type": "Point", "coordinates": [ 115.038519999798268, 30.199652000139736 ] } },
{ "type": "Feature", "properties": { "Code": 420500.0, "Province": "湖北省", "City": "宜昌市", "X": 111.286471, "Y": 30.691967, "Name": "崔泽铭", "Year": "2023" }, "geometry": { "type": "Point", "coordinates": [ 111.28647100003667, 30.691966999977126 ] } },
{ "type": "Feature", "properties": { "Code": 420700.0, "Province": "湖北省", "City": "鄂州市", "X": 114.894843, "Y": 30.39194, "Name": "崔泽铭", "Year": "2024" }, "geometry": { "type": "Point", "coordinates": [ 114.894843000304263, 30.391940000230875 ] } },
{ "type": "Feature", "properties": { "Code": 420900.0, "Province": "湖北省", "City": "孝感市", "X": 113.916902, "Y": 30.924568, "Name": "崔泽铭", "Year": "2023" }, "geometry": { "type": "Point", "coordinates": [ 113.916901999727543, 30.924568000213071 ] } },
{ "type": "Feature", "properties": { "Code": 421100.0, "Province": "湖北省", "City": "黄冈市", "X": 114.872316, "Y": 30.453905, "Name": "崔泽铭", "Year": "2023" }, "geometry": { "type": "Point", "coordinates": [ 114.872316000183332, 30.45390499971603 ] } },
{ "type": "Feature", "properties": { "Code": 421200.0, "Province": "湖北省", "City": "咸宁市", "X": 114.322492, "Y": 29.841443, "Name": "崔泽铭", "Year": "2023" }, "geometry": { "type": "Point", "coordinates": [ 114.322492000405532, 29.841442999994513 ] } },
{ "type": "Feature", "properties": { "Code": 430100.0, "Province": "湖南省", "City": "长沙市", "X": 112.938814, "Y": 28.228209, "Name": "崔泽铭", "Year": "2023" }, "geometry": { "type": "Point", "coordinates": [ 112.938813999566491, 28.228208999945423 ] } },
{ "type": "Feature", "properties": { "Code": 440100.0, "Province": "广东省", "City": "广州市", "X": 113.264434, "Y": 23.129162, "Name": "崔泽铭", "Year": "2023" }, "geometry": { "type": "Point", "coordinates": [ 113.264433999629432, 23.129162000126257 ] } },
{ "type": "Feature", "properties": { "Code": 440300.0, "Province": "广东省", "City": "深圳市", "X": 114.057868, "Y": 22.543099, "Name": "崔泽铭", "Year": "2023" }, "geometry": { "type": "Point", "coordinates": [ 114.057868000108215, 22.543099000118787 ] } },
{ "type": "Feature", "properties": { "Code": 440400.0, "Province": "广东省", "City": "珠海市", "X": 113.576726, "Y": 22.270715, "Name": "崔泽铭", "Year": "2023" }, "geometry": { "type": "Point", "coordinates": [ 113.576726000204758, 22.270714999897393 ] } },
{ "type": "Feature", "properties": { "Code": 440500.0, "Province": "广东省", "City": "汕头市", "X": 116.681972, "Y": 23.354091, "Name": "崔泽铭", "Year": "2023" }, "geometry": { "type": "Point", "coordinates": [ 116.68197200030761, 23.354090999999698 ] } },
{ "type": "Feature", "properties": { "Code": 440600.0, "Province": "广东省", "City": "佛山市", "X": 113.121416, "Y": 23.021548, "Name": "崔泽铭", "Year": "2023" }, "geometry": { "type": "Point", "coordinates": [ 113.121415999948454, 23.02154799994031 ] } },
{ "type": "Feature", "properties": { "Code": 440700.0, "Province": "广东省", "City": "江门市", "X": 113.081901, "Y": 22.578738, "Name": "崔泽铭", "Year": "2023" }, "geometry": { "type": "Point", "coordinates": [ 113.081900999731374, 22.578737999658983 ] } },
{ "type": "Feature", "properties": { "Code": 440800.0, "Province": "广东省", "City": "湛江市", "X": 110.359377, "Y": 21.270707, "Name": "崔泽铭", "Year": "2023" }, "geometry": { "type": "Point", "coordinates": [ 110.359376999748804, 21.270706999728304 ] } },
{ "type": "Feature", "properties": { "Code": 440900.0, "Province": "广东省", "City": "茂名市", "X": 110.925456, "Y": 21.662999, "Name": "崔泽铭", "Year": "2023" }, "geometry": { "type": "Point", "coordinates": [ 110.925455999994483, 21.662998999604213 ] } },
{ "type": "Feature", "properties": { "Code": 441500.0, "Province": "广东省", "City": "汕尾市", "X": 115.375278, "Y": 22.786211, "Name": "崔泽铭", "Year": "2023" }, "geometry": { "type": "Point", "coordinates": [ 115.375277999979744, 22.78621100033746 ] } },
{ "type": "Feature", "properties": { "Code": 441700.0, "Province": "广东省", "City": "阳江市", "X": 111.982232, "Y": 21.857958, "Name": "崔泽铭", "Year": "2023" }, "geometry": { "type": "Point", "coordinates": [ 111.982232000106762, 21.857957999662005 ] } },
{ "type": "Feature", "properties": { "Code": 441900.0, "Province": "广东省", "City": "东莞市", "X": 113.751765, "Y": 23.020536, "Name": "崔泽铭", "Year": "2023" }, "geometry": { "type": "Point", "coordinates": [ 113.751764999854913, 23.020536000036429 ] } },
{ "type": "Feature", "properties": { "Code": 442000.0, "Province": "广东省", "City": "中山市", "X": 113.392782, "Y": 22.517645, "Name": "崔泽铭", "Year": "2023" }, "geometry": { "type": "Point", "coordinates": [ 113.392781999989325, 22.517644999916854 ] } },
{ "type": "Feature", "properties": { "Code": 445100.0, "Province": "广东省", "City": "潮州市", "X": 116.622603, "Y": 23.65695, "Name": "崔泽铭", "Year": "2023" }, "geometry": { "type": "Point", "coordinates": [ 116.622603000028448, 23.656949999942583 ] } },
{ "type": "Feature", "properties": { "Code": 445200.0, "Province": "广东省", "City": "揭阳市", "X": 116.372831, "Y": 23.549993, "Name": "崔泽铭", "Year": "2023" }, "geometry": { "type": "Point", "coordinates": [ 116.372831000250471, 23.54999300037673 ] } },
{ "type": "Feature", "properties": { "Code": 460100.0, "Province": "海南省", "City": "海口市", "X": 110.198293, "Y": 20.044001, "Name": "崔泽铭", "Year": "2009" }, "geometry": { "type": "Point", "coordinates": [ 110.198292999722241, 20.044000999946263 ] } },
{ "type": "Feature", "properties": { "Code": 460200.0, "Province": "海南省", "City": "三亚市", "X": 109.511909, "Y": 18.252847, "Name": "崔泽铭", "Year": "2010" }, "geometry": { "type": "Point", "coordinates": [ 109.511909000400124, 18.252846999589394 ] } },
{ "type": "Feature", "properties": { "Code": 469001.0, "Province": "海南省", "City": "五指山市", "X": 109.516925, "Y": 18.775146, "Name": "崔泽铭", "Year": "2012" }, "geometry": { "type": "Point", "coordinates": [ 109.516924999689024, 18.775145999888025 ] } },
{ "type": "Feature", "properties": { "Code": 469002.0, "Province": "海南省", "City": "琼海市", "X": 110.474581, "Y": 19.25914, "Name": "崔泽铭", "Year": "2014" }, "geometry": { "type": "Point", "coordinates": [ 110.474581000113119, 19.25914000001103 ] } },
{ "type": "Feature", "properties": { "Code": 469005.0, "Province": "海南省", "City": "文昌市", "X": 110.797717, "Y": 19.543422, "Name": "崔泽铭", "Year": "2010" }, "geometry": { "type": "Point", "coordinates": [ 110.797716999839736, 19.543422000325108 ] } },
{ "type": "Feature", "properties": { "Code": 469006.0, "Province": "海南省", "City": "万宁市", "X": 110.391073, "Y": 18.795143, "Name": "崔泽铭", "Year": "2003" }, "geometry": { "type": "Point", "coordinates": [ 110.391073000018991, 18.795143000249311 ] } },
{ "type": "Feature", "properties": { "Code": 469007.0, "Province": "海南省", "City": "东方市", "X": 108.651815, "Y": 19.095351, "Name": "崔泽铭", "Year": "2024" }, "geometry": { "type": "Point", "coordinates": [ 108.651814999762507, 19.095351000248513 ] } },
{ "type": "Feature", "properties": { "Code": 469021.0, "Province": "海南省", "City": "定安县", "X": 110.358891, "Y": 19.681434, "Name": "崔泽铭", "Year": "2021" }, "geometry": { "type": "Point", "coordinates": [ 110.358890999819835, 19.681434000278955 ] } },
{ "type": "Feature", "properties": { "Code": 469022.0, "Province": "海南省", "City": "屯昌县", "X": 110.103415, "Y": 19.351766, "Name": "崔泽铭", "Year": "2021" }, "geometry": { "type": "Point", "coordinates": [ 110.103414999602592, 19.351765999701172 ] } },
{ "type": "Feature", "properties": { "Code": 469023.0, "Province": "海南省", "City": "澄迈县", "X": 110.006755, "Y": 19.738521, "Name": "崔泽铭", "Year": "2019" }, "geometry": { "type": "Point", "coordinates": [ 110.006755000043256, 19.738520999644493 ] } },
{ "type": "Feature", "properties": { "Code": 469024.0, "Province": "海南省", "City": "临高县", "X": 109.690508, "Y": 19.912026, "Name": "崔泽铭", "Year": "2020" }, "geometry": { "type": "Point", "coordinates": [ 109.690507999644524, 19.912025999600246 ] } },
{ "type": "Feature", "properties": { "Code": 469025.0, "Province": "海南省", "City": "白沙黎族自治县", "X": 109.451484, "Y": 19.224823, "Name": "崔泽铭", "Year": "2012" }, "geometry": { "type": "Point", "coordinates": [ 109.451483999986692, 19.224823000281276 ] } },
{ "type": "Feature", "properties": { "Code": 469026.0, "Province": "海南省", "City": "昌江黎族自治县", "X": 109.055724, "Y": 19.298062, "Name": "崔泽铭", "Year": "2012" }, "geometry": { "type": "Point", "coordinates": [ 109.055724000262444, 19.298061999861432 ] } },
{ "type": "Feature", "properties": { "Code": 469027.0, "Province": "海南省", "City": "乐东黎族自治县", "X": 109.173055, "Y": 18.75026, "Name": "崔泽铭", "Year": "2024" }, "geometry": { "type": "Point", "coordinates": [ 109.173054999788462, 18.750259999799198 ] } },
{ "type": "Feature", "properties": { "Code": 469028.0, "Province": "海南省", "City": "陵水黎族自治县", "X": 110.037504, "Y": 18.506048, "Name": "崔泽铭", "Year": "2020" }, "geometry": { "type": "Point", "coordinates": [ 110.037503999809815, 18.506048000115186 ] } },
{ "type": "Feature", "properties": { "Code": 469029.0, "Province": "海南省", "City": "保亭黎族苗族自治县", "X": 109.702392, "Y": 18.638189, "Name": "崔泽铭", "Year": "2012" }, "geometry": { "type": "Point", "coordinates": [ 109.70239199999088, 18.638189000022408 ] } },
{ "type": "Feature", "properties": { "Code": 469030.0, "Province": "海南省", "City": "琼中黎族苗族自治县", "X": 109.838389, "Y": 19.033369, "Name": "崔泽铭", "Year": "2012" }, "geometry": { "type": "Point", "coordinates": [ 109.838388999652693, 19.033368999979416 ] } }
]
}
